ONEWEB-0704             
1 61609U 24188R   25279.02803082 -.00000484  00000+0 -14229-2 0  9990
2 61609  87.8763  86.8882 0002474 106.1986 253.9414 13.10371026 50008
ONEWEB-0705             
1 61610U 24188S   25279.18574252 -.00003908  00000+0 -11238-1 0  9993
2 61610  87.8751  86.8876 0003067  87.2197 272.9281 13.10353059 42192
ONEWEB-0706             
1 61611U 24188T   25279.17079618  .00000066  00000+0  15378-3 0  9990
2 61611  87.8743  86.9160 0002273  97.4929 262.6456 13.10370797 50114
ONEWEB-0707             
1 61612U 24188U   25279.02471904 -.00000393  00000+0 -11634-2 0  9994
2 61612  87.8758  86.9136 0002209  99.8453 260.2924 13.10371800 50032
ONEWEB-0708             
1 61613U 24188V   25278.89025382 -.00000714  00000+0 -20831-2 0  9990
2 61613  87.8762  86.9826 0002427  89.2145 270.9261 13.10373833 49990
