[{"OBJECT_NAME":"ONEWEB-0704","OBJECT_ID":"2024-188R","EPOCH":"2025-10-06T00:40:21.862848","MEAN_MOTION":13.10371026,"ECCENTRICITY":0.0002474,"INCLINATION":87.8763,"RA_OF_ASC_NODE":86.8882,"ARG_OF_PERICENTER":106.1986,"MEAN_ANOMALY":253.9414,"EPHEMERIS_TYPE":0,"CLASSIFICATION_TYPE":"U","NORAD_CAT_ID":61609,"ELEMENT_SET_NO":999,"REV_AT_EPOCH":5000,"BSTAR":-0.0014229,"MEAN_MOTION_DOT":-4.84e-6,"MEAN_MOTION_DDOT":0},{"OBJECT_NAME":"ONEWEB-0705","OBJECT_ID":"2024-188S","EPOCH":"2025-10-06T04:27:28.153728","MEAN_MOTION":13.10353059,"ECCENTRICITY":0.0003067,"INCLINATION":87.8751,"RA_OF_ASC_NODE":86.8876,"ARG_OF_PERICENTER":87.2197,"MEAN_ANOMALY":272.9281,"EPHEMERIS_TYPE":0,"CLASSIFICATION_TYPE":"U","NORAD_CAT_ID":61610,"ELEMENT_SET_NO":999,"REV_AT_EPOCH":4219,"BSTAR":-0.011238,"MEAN_MOTION_DOT":-3.908e-5,"MEAN_MOTION_DDOT":0},{"OBJECT_NAME":"ONEWEB-0706","OBJECT_ID":"2024-188T","EPOCH":"2025-10-06T04:05:56.789952","MEAN_MOTION":13.10370797,"ECCENTRICITY":0.0002273,"INCLINATION":87.8743,"RA_OF_ASC_NODE":86.916,"ARG_OF_PERICENTER":97.4929,"MEAN_ANOMALY":262.6456,"EPHEMERIS_TYPE":0,"CLASSIFICATION_TYPE":"U","NORAD_CAT_ID":61611,"ELEMENT_SET_NO":999,"REV_AT_EPOCH":5011,"BSTAR":0.00015378,"MEAN_MOTION_DOT":6.6e-7,"MEAN_MOTION_DDOT":0},{"OBJECT_NAME":"ONEWEB-0707","OBJECT_ID":"2024-188U","EPOCH":"2025-10-06T00:35:35.725056","MEAN_MOTION":13.103718,"ECCENTRICITY":0.0002209,"INCLINATION":87.8758,"RA_OF_ASC_NODE":86.9136,"ARG_OF_PERICENTER":99.8453,"MEAN_ANOMALY":260.2924,"EPHEMERIS_TYPE":0,"CLASSIFICATION_TYPE":"U","NORAD_CAT_ID":61612,"ELEMENT_SET_NO":999,"REV_AT_EPOCH":5003,"BSTAR":-0.0011634,"MEAN_MOTION_DOT":-3.93e-6,"MEAN_MOTION_DDOT":0},{"OBJECT_NAME":"ONEWEB-0708","OBJECT_ID":"2024-188V","EPOCH":"2025-10-05T21:21:57.930048","MEAN_MOTION":13.10373833,"ECCENTRICITY":0.0002427,"INCLINATION":87.8762,"RA_OF_ASC_NODE":86.9826,"ARG_OF_PERICENTER":89.2145,"MEAN_ANOMALY":270.9261,"EPHEMERIS_TYPE":0,"CLASSIFICATION_TYPE":"U","NORAD_CAT_ID":61613,"ELEMENT_SET_NO":999,"REV_AT_EPOCH":4999,"BSTAR":-0.0020831,"MEAN_MOTION_DOT":-7.14e-6,"MEAN_MOTION_DDOT":0}]
